CCSDS_OMM_VERS = 2.0
CREATION_DATE  = 
ORIGINATOR     = 

OBJECT_NAME    = ATLAS CENTAUR 2
OBJECT_ID      = 1963-047A
CENTER_NAME    = EARTH
REF_FRAME      = TEME
TIME_SYSTEM    = UTC
MEAN_ELEMENT_THEORY = SGP/SGP4

EPOCH          = 2026-02-25T00:46:36.488064
MEAN_MOTION    = 14.12025690
ECCENTRICITY   = .05480318
INCLINATION    = 30.3550
RA_OF_ASC_NODE = 266.3802
ARG_OF_PERICENTER = 328.7371
MEAN_ANOMALY   = 28.1705

EPHEMERIS_TYPE = 0
CLASSIFICATION_TYPE = U
NORAD_CAT_ID   = 694
ELEMENT_SET_NO = 999
REV_AT_EPOCH   = 12983
BSTAR          = .13031143E-3
MEAN_MOTION_DOT = .1171E-4
MEAN_MOTION_DDOT = 0

CCSDS_OMM_VERS = 2.0
CREATION_DATE  = 
ORIGINATOR     = 

OBJECT_NAME    = THOR AGENA D R/B
OBJECT_ID      = 1964-002A
CENTER_NAME    = EARTH
REF_FRAME      = TEME
TIME_SYSTEM    = UTC
MEAN_ELEMENT_THEORY = SGP/SGP4

EPOCH          = 2026-02-25T12:30:24.016320
MEAN_MOTION    = 14.34011803
ECCENTRICITY   = .0031973
INCLINATION    = 99.1228
RA_OF_ASC_NODE = 69.1955
ARG_OF_PERICENTER = 294.6630
MEAN_ANOMALY   = 65.1225

EPHEMERIS_TYPE = 0
CLASSIFICATION_TYPE = U
NORAD_CAT_ID   = 733
ELEMENT_SET_NO = 999
REV_AT_EPOCH   = 23655
BSTAR          = .95289E-4
MEAN_MOTION_DOT = .218E-5
MEAN_MOTION_DDOT = 0

CCSDS_OMM_VERS = 2.0
CREATION_DATE  = 
ORIGINATOR     = 

OBJECT_NAME    = SL-3 R/B
OBJECT_ID      = 1964-053B
CENTER_NAME    = EARTH
REF_FRAME      = TEME
TIME_SYSTEM    = UTC
MEAN_ELEMENT_THEORY = SGP/SGP4

EPOCH          = 2026-02-25T20:27:57.266496
MEAN_MOTION    = 14.61354425
ECCENTRICITY   = .0079232
INCLINATION    = 65.0785
RA_OF_ASC_NODE = 5.9383
ARG_OF_PERICENTER = 295.9808
MEAN_ANOMALY   = 63.3145

EPHEMERIS_TYPE = 0
CLASSIFICATION_TYPE = U
NORAD_CAT_ID   = 877
ELEMENT_SET_NO = 999
REV_AT_EPOCH   = 26506
BSTAR          = .86743E-4
MEAN_MOTION_DOT = .323E-5
MEAN_MOTION_DDOT = 0

CCSDS_OMM_VERS = 2.0
CREATION_DATE  = 
ORIGINATOR     = 

OBJECT_NAME    = SL-8 R/B
OBJECT_ID      = 1967-045B
CENTER_NAME    = EARTH
REF_FRAME      = TEME
TIME_SYSTEM    = UTC
MEAN_ELEMENT_THEORY = SGP/SGP4

EPOCH          = 2026-02-25T07:49:44.461056
MEAN_MOTION    = 14.45608280
ECCENTRICITY   = .00636869
INCLINATION    = 74.0128
RA_OF_ASC_NODE = 11.1759
ARG_OF_PERICENTER = 20.4218
MEAN_ANOMALY   = 339.9464

EPHEMERIS_TYPE = 0
CLASSIFICATION_TYPE = U
NORAD_CAT_ID   = 2802
ELEMENT_SET_NO = 999
REV_AT_EPOCH   = 8723
BSTAR          = .13672424E-3
MEAN_MOTION_DOT = .467E-5
MEAN_MOTION_DDOT = 0

CCSDS_OMM_VERS = 2.0
CREATION_DATE  = 
ORIGINATOR     = 

OBJECT_NAME    = SL-8 R/B
OBJECT_ID      = 1968-040B
CENTER_NAME    = EARTH
REF_FRAME      = TEME
TIME_SYSTEM    = UTC
MEAN_ELEMENT_THEORY = SGP/SGP4

EPOCH          = 2026-02-25T04:44:42.849888
MEAN_MOTION    = 15.03157428
ECCENTRICITY   = .0024488
INCLINATION    = 74.0334
RA_OF_ASC_NODE = 339.2156
ARG_OF_PERICENTER = 167.2006
MEAN_ANOMALY   = 192.9810

EPHEMERIS_TYPE = 0
CLASSIFICATION_TYPE = U
NORAD_CAT_ID   = 3230
ELEMENT_SET_NO = 999
REV_AT_EPOCH   = 8813
BSTAR          = .28132E-3
MEAN_MOTION_DOT = .3785E-4
MEAN_MOTION_DDOT = 0

CCSDS_OMM_VERS = 2.0
CREATION_DATE  = 
ORIGINATOR     = 

OBJECT_NAME    = OAO 2
OBJECT_ID      = 1968-110A
CENTER_NAME    = EARTH
REF_FRAME      = TEME
TIME_SYSTEM    = UTC
MEAN_ELEMENT_THEORY = SGP/SGP4

EPOCH          = 2026-02-25T20:21:25.180704
MEAN_MOTION    = 14.47299301
ECCENTRICITY   = .0004872
INCLINATION    = 34.9945
RA_OF_ASC_NODE = 331.3372
ARG_OF_PERICENTER = 105.6489
MEAN_ANOMALY   = 254.4740

EPHEMERIS_TYPE = 0
CLASSIFICATION_TYPE = U
NORAD_CAT_ID   = 3597
ELEMENT_SET_NO = 999
REV_AT_EPOCH   = 1738
BSTAR          = .71512E-4
MEAN_MOTION_DOT = .246E-5
MEAN_MOTION_DDOT = 0

CCSDS_OMM_VERS = 2.0
CREATION_DATE  = 
ORIGINATOR     = 

OBJECT_NAME    = ISIS 1
OBJECT_ID      = 1969-009A
CENTER_NAME    = EARTH
REF_FRAME      = TEME
TIME_SYSTEM    = UTC
MEAN_ELEMENT_THEORY = SGP/SGP4

EPOCH          = 2026-02-25T07:53:22.177824
MEAN_MOTION    = 11.30409542
ECCENTRICITY   = .1707818
INCLINATION    = 88.4554
RA_OF_ASC_NODE = 156.6556
ARG_OF_PERICENTER = 114.1003
MEAN_ANOMALY   = 264.7809

EPHEMERIS_TYPE = 0
CLASSIFICATION_TYPE = U
NORAD_CAT_ID   = 3669
ELEMENT_SET_NO = 999
REV_AT_EPOCH   = 34713
BSTAR          = .93554E-4
MEAN_MOTION_DOT = .155E-5
MEAN_MOTION_DDOT = 0

CCSDS_OMM_VERS = 2.0
CREATION_DATE  = 
ORIGINATOR     = 

OBJECT_NAME    = SERT 2
OBJECT_ID      = 1970-009A
CENTER_NAME    = EARTH
REF_FRAME      = TEME
TIME_SYSTEM    = UTC
MEAN_ELEMENT_THEORY = SGP/SGP4

EPOCH          = 2026-02-25T20:00:53.580672
MEAN_MOTION    = 13.58728745
ECCENTRICITY   = .000458
INCLINATION    = 99.2742
RA_OF_ASC_NODE = 0.5773
ARG_OF_PERICENTER = 185.6335
MEAN_ANOMALY   = 191.1930

EPHEMERIS_TYPE = 0
CLASSIFICATION_TYPE = U
NORAD_CAT_ID   = 4327
ELEMENT_SET_NO = 999
REV_AT_EPOCH   = 77828
BSTAR          = .86436E-4
MEAN_MOTION_DOT = .22E-6
MEAN_MOTION_DDOT = 0

CCSDS_OMM_VERS = 2.0
CREATION_DATE  = 
ORIGINATOR     = 

OBJECT_NAME    = SL-3 R/B
OBJECT_ID      = 1971-028B
CENTER_NAME    = EARTH
REF_FRAME      = TEME
TIME_SYSTEM    = UTC
MEAN_ELEMENT_THEORY = SGP/SGP4

EPOCH          = 2026-02-25T19:03:17.288640
MEAN_MOTION    = 15.60020861
ECCENTRICITY   = .0015136
INCLINATION    = 81.2336
RA_OF_ASC_NODE = 66.7120
ARG_OF_PERICENTER = 335.0571
MEAN_ANOMALY   = 24.9948

EPHEMERIS_TYPE = 0
CLASSIFICATION_TYPE = U
NORAD_CAT_ID   = 5118
ELEMENT_SET_NO = 999
REV_AT_EPOCH   = 98681
BSTAR          = .4438E-3
MEAN_MOTION_DOT = .36195E-3
MEAN_MOTION_DDOT = 0

CCSDS_OMM_VERS = 2.0
CREATION_DATE  = 
ORIGINATOR     = 

OBJECT_NAME    = ASTEX 1
OBJECT_ID      = 1971-089A
CENTER_NAME    = EARTH
REF_FRAME      = TEME
TIME_SYSTEM    = UTC
MEAN_ELEMENT_THEORY = SGP/SGP4

EPOCH          = 2026-02-25T16:23:20.577120
MEAN_MOTION    = 14.50754261
ECCENTRICITY   = .001761
INCLINATION    = 92.7137
RA_OF_ASC_NODE = 147.8763
ARG_OF_PERICENTER = 121.3526
MEAN_ANOMALY   = 238.9406

EPHEMERIS_TYPE = 0
CLASSIFICATION_TYPE = U
NORAD_CAT_ID   = 5560
ELEMENT_SET_NO = 999
REV_AT_EPOCH   = 86056
BSTAR          = .13331E-3
MEAN_MOTION_DOT = .524E-5
MEAN_MOTION_DDOT = 0

CCSDS_OMM_VERS = 2.0
CREATION_DATE  = 
ORIGINATOR     = 

OBJECT_NAME    = SL-8 R/B
OBJECT_ID      = 1971-119B
CENTER_NAME    = EARTH
REF_FRAME      = TEME
TIME_SYSTEM    = UTC
MEAN_ELEMENT_THEORY = SGP/SGP4

EPOCH          = 2026-02-25T18:11:23.822304
MEAN_MOTION    = 14.37458539
ECCENTRICITY   = .0551124
INCLINATION    = 73.8860
RA_OF_ASC_NODE = 198.0137
ARG_OF_PERICENTER = 167.1256
MEAN_ANOMALY   = 194.4661

EPHEMERIS_TYPE = 0
CLASSIFICATION_TYPE = U
NORAD_CAT_ID   = 5730
ELEMENT_SET_NO = 999
REV_AT_EPOCH   = 65377
BSTAR          = .76048E-3
MEAN_MOTION_DOT = .14653E-3
MEAN_MOTION_DDOT = 0

CCSDS_OMM_VERS = 2.0
CREATION_DATE  = 
ORIGINATOR     = 

OBJECT_NAME    = OAO 3 (COPERNICUS)
OBJECT_ID      = 1972-065A
CENTER_NAME    = EARTH
REF_FRAME      = TEME
TIME_SYSTEM    = UTC
MEAN_ELEMENT_THEORY = SGP/SGP4

EPOCH          = 2026-02-25T05:44:03.310944
MEAN_MOTION    = 14.59985716
ECCENTRICITY   = .0006004
INCLINATION    = 35.0070
RA_OF_ASC_NODE = 8.2505
ARG_OF_PERICENTER = 56.2329
MEAN_ANOMALY   = 98.0916

EPHEMERIS_TYPE = 0
CLASSIFICATION_TYPE = U
NORAD_CAT_ID   = 6153
ELEMENT_SET_NO = 999
REV_AT_EPOCH   = 84437
BSTAR          = .81027E-4
MEAN_MOTION_DOT = .373E-5
MEAN_MOTION_DDOT = 0

