ATLAS CENTAUR 2         
1 00694U 63047A   26056.03236676  .00001171  00000+0  13031-3 0  9991
2 00694  30.3550 266.3802 0548031 328.7371  28.1705 14.12025690129832
THOR AGENA D R/B        
1 00733U 64002A   26056.52111130  .00000218  00000+0  95289-4 0  9995
2 00733  99.1228  69.1955 0031973 294.6630  65.1225 14.34011803236551
SL-3 R/B                
1 00877U 64053B   26056.85274614  .00000323  00000+0  86743-4 0  9995
2 00877  65.0785   5.9383 0079232 295.9808  63.3145 14.61354425265063
SL-8 R/B                
1 02802U 67045B   26056.32620904  .00000467  00000+0  13672-3 0  9997
2 02802  74.0128  11.1759 0063686  20.4218 339.9464 14.45608280 87232
SL-8 R/B                
1 03230U 68040B   26056.19771817  .00003785  00000+0  28132-3 0  9997
2 03230  74.0334 339.2156 0024488 167.2006 192.9810 15.03157428 88134
OAO 2                   
1 03597U 68110A   26056.84820811  .00000246  00000+0  71512-4 0  9992
2 03597  34.9945 331.3372 0004872 105.6489 254.4740 14.47299301 17381
ISIS 1                  
1 03669U 69009A   26056.32872891  .00000155  00000+0  93554-4 0  9997
2 03669  88.4554 156.6556 1707818 114.1003 264.7809 11.30409542347139
SERT 2                  
1 04327U 70009A   26056.83395348  .00000022  00000+0  86436-4 0  9998
2 04327  99.2742   0.5773 0004580 185.6335 191.1930 13.58728745778287
SL-3 R/B                
1 05118U 71028B   26056.79395010  .00036195  00000+0  44380-3 0  9991
2 05118  81.2336  66.7120 0015136 335.0571  24.9948 15.60020861986819
ASTEX 1                 
1 05560U 71089A   26056.68287705  .00000524  00000+0  13331-3 0  9997
2 05560  92.7137 147.8763 0017610 121.3526 238.9406 14.50754261860560
SL-8 R/B                
1 05730U 71119B   26056.75791461  .00014653  00000+0  76048-3 0  9999
2 05730  73.8860 198.0137 0551124 167.1256 194.4661 14.37458539653772
OAO 3 (COPERNICUS)      
1 06153U 72065A   26056.23892721  .00000373  00000+0  81027-4 0  9992
2 06153  35.0070   8.2505 0006004  56.2329  98.0916 14.59985716844373
